<?xml version="1.0" encoding="UTF-8"?>
<ndm xmlns:xsi="http://www.w3.org/2001/XMLSchema-instance" xsi:noNamespaceSchemaLocation="https://sanaregistry.org/r/ndmxml_unqualified/ndmxml-2.0.0-master-2.0.xsd">
<omm id="CCSDS_OMM_VERS" version="2.0">
<header><CREATION_DATE/><ORIGINATOR/></header><body><segment><metadata><OBJECT_NAME>ORBCOMM FM20 [+]</OBJECT_NAME><OBJECT_ID>1998-046D</OBJECT_ID><CENTER_NAME>EARTH</CENTER_NAME><REF_FRAME>TEME</REF_FRAME><TIME_SYSTEM>UTC</TIME_SYSTEM><MEAN_ELEMENT_THEORY>SGP4</MEAN_ELEMENT_THEORY></metadata><data><meanElements><EPOCH>2023-11-10T14:09:33.257664</EPOCH><MEAN_MOTION>14.34588741</MEAN_MOTION><ECCENTRICITY>.0001798</ECCENTRICITY><INCLINATION>44.9944</INCLINATION><RA_OF_ASC_NODE>63.5785</RA_OF_ASC_NODE><ARG_OF_PERICENTER>204.4560</ARG_OF_PERICENTER><MEAN_ANOMALY>155.6202</MEAN_ANOMALY></meanElements><tleParameters><EPHEMERIS_TYPE>0</EPHEMERIS_TYPE><CLASSIFICATION_TYPE>U</CLASSIFICATION_TYPE><NORAD_CAT_ID>25416</NORAD_CAT_ID><ELEMENT_SET_NO>999</ELEMENT_SET_NO><REV_AT_EPOCH>32024</REV_AT_EPOCH><BSTAR>.62105E-3</BSTAR><MEAN_MOTION_DOT>.1629E-4</MEAN_MOTION_DOT><MEAN_MOTION_DDOT>0</MEAN_MOTION_DDOT></tleParameters></data></segment></body></omm>
<omm id="CCSDS_OMM_VERS" version="2.0">
<header><CREATION_DATE/><ORIGINATOR/></header><body><segment><metadata><OBJECT_NAME>ORBCOMM FM16 [-]</OBJECT_NAME><OBJECT_ID>1998-046E</OBJECT_ID><CENTER_NAME>EARTH</CENTER_NAME><REF_FRAME>TEME</REF_FRAME><TIME_SYSTEM>UTC</TIME_SYSTEM><MEAN_ELEMENT_THEORY>SGP4</MEAN_ELEMENT_THEORY></metadata><data><meanElements><EPOCH>2023-11-11T03:27:27.400032</EPOCH><MEAN_MOTION>14.35335139</MEAN_MOTION><ECCENTRICITY>.0005391</ECCENTRICITY><INCLINATION>44.9953</INCLINATION><RA_OF_ASC_NODE>57.9244</RA_OF_ASC_NODE><ARG_OF_PERICENTER>234.8004</ARG_OF_PERICENTER><MEAN_ANOMALY>125.2339</MEAN_ANOMALY></meanElements><tleParameters><EPHEMERIS_TYPE>0</EPHEMERIS_TYPE><CLASSIFICATION_TYPE>U</CLASSIFICATION_TYPE><NORAD_CAT_ID>25417</NORAD_CAT_ID><ELEMENT_SET_NO>999</ELEMENT_SET_NO><REV_AT_EPOCH>32046</REV_AT_EPOCH><BSTAR>.71365E-3</BSTAR><MEAN_MOTION_DOT>.1924E-4</MEAN_MOTION_DOT><MEAN_MOTION_DDOT>0</MEAN_MOTION_DDOT></tleParameters></data></segment></body></omm>
<omm id="CCSDS_OMM_VERS" version="2.0">
<header><CREATION_DATE/><ORIGINATOR/></header><body><segment><metadata><OBJECT_NAME>ORBCOMM FM15 [-]</OBJECT_NAME><OBJECT_ID>1998-046F</OBJECT_ID><CENTER_NAME>EARTH</CENTER_NAME><REF_FRAME>TEME</REF_FRAME><TIME_SYSTEM>UTC</TIME_SYSTEM><MEAN_ELEMENT_THEORY>SGP4</MEAN_ELEMENT_THEORY></metadata><data><meanElements><EPOCH>2023-11-11T09:59:16.887552</EPOCH><MEAN_MOTION>14.35088112</MEAN_MOTION><ECCENTRICITY>.0004837</ECCENTRICITY><INCLINATION>44.9977</INCLINATION><RA_OF_ASC_NODE>60.2956</RA_OF_ASC_NODE><ARG_OF_PERICENTER>236.4951</ARG_OF_PERICENTER><MEAN_ANOMALY>123.5434</MEAN_ANOMALY></meanElements><tleParameters><EPHEMERIS_TYPE>0</EPHEMERIS_TYPE><CLASSIFICATION_TYPE>U</CLASSIFICATION_TYPE><NORAD_CAT_ID>25418</NORAD_CAT_ID><ELEMENT_SET_NO>999</ELEMENT_SET_NO><REV_AT_EPOCH>32046</REV_AT_EPOCH><BSTAR>.83227E-3</BSTAR><MEAN_MOTION_DOT>.2256E-4</MEAN_MOTION_DOT><MEAN_MOTION_DDOT>0</MEAN_MOTION_DDOT></tleParameters></data></segment></body></omm>
<omm id="CCSDS_OMM_VERS" version="2.0">
<header><CREATION_DATE/><ORIGINATOR/></header><body><segment><metadata><OBJECT_NAME>ORBCOMM FM14 [-]</OBJECT_NAME><OBJECT_ID>1998-046G</OBJECT_ID><CENTER_NAME>EARTH</CENTER_NAME><REF_FRAME>TEME</REF_FRAME><TIME_SYSTEM>UTC</TIME_SYSTEM><MEAN_ELEMENT_THEORY>SGP4</MEAN_ELEMENT_THEORY></metadata><data><meanElements><EPOCH>2023-11-10T10:26:26.316384</EPOCH><MEAN_MOTION>14.35204737</MEAN_MOTION><ECCENTRICITY>.0003811</ECCENTRICITY><INCLINATION>44.9963</INCLINATION><RA_OF_ASC_NODE>64.2460</RA_OF_ASC_NODE><ARG_OF_PERICENTER>220.7519</ARG_OF_PERICENTER><MEAN_ANOMALY>247.4098</MEAN_ANOMALY></meanElements><tleParameters><EPHEMERIS_TYPE>0</EPHEMERIS_TYPE><CLASSIFICATION_TYPE>U</CLASSIFICATION_TYPE><NORAD_CAT_ID>25419</NORAD_CAT_ID><ELEMENT_SET_NO>999</ELEMENT_SET_NO><REV_AT_EPOCH>32010</REV_AT_EPOCH><BSTAR>.94923E-3</BSTAR><MEAN_MOTION_DOT>.2599E-4</MEAN_MOTION_DOT><MEAN_MOTION_DDOT>0</MEAN_MOTION_DDOT></tleParameters></data></segment></body></omm>
<omm id="CCSDS_OMM_VERS" version="2.0">
<header><CREATION_DATE/><ORIGINATOR/></header><body><segment><metadata><OBJECT_NAME>ORBCOMM FM13 [+]</OBJECT_NAME><OBJECT_ID>1998-046H</OBJECT_ID><CENTER_NAME>EARTH</CENTER_NAME><REF_FRAME>TEME</REF_FRAME><TIME_SYSTEM>UTC</TIME_SYSTEM><MEAN_ELEMENT_THEORY>SGP4</MEAN_ELEMENT_THEORY></metadata><data><meanElements><EPOCH>2023-11-11T03:28:23.766528</EPOCH><MEAN_MOTION>14.34639171</MEAN_MOTION><ECCENTRICITY>.0005955</ECCENTRICITY><INCLINATION>44.9979</INCLINATION><RA_OF_ASC_NODE>64.8616</RA_OF_ASC_NODE><ARG_OF_PERICENTER>223.5112</ARG_OF_PERICENTER><MEAN_ANOMALY>136.5266</MEAN_ANOMALY></meanElements><tleParameters><EPHEMERIS_TYPE>0</EPHEMERIS_TYPE><CLASSIFICATION_TYPE>U</CLASSIFICATION_TYPE><NORAD_CAT_ID>25420</NORAD_CAT_ID><ELEMENT_SET_NO>999</ELEMENT_SET_NO><REV_AT_EPOCH>32041</REV_AT_EPOCH><BSTAR>.62493E-3</BSTAR><MEAN_MOTION_DOT>.1643E-4</MEAN_MOTION_DOT><MEAN_MOTION_DDOT>0</MEAN_MOTION_DDOT></tleParameters></data></segment></body></omm>
<omm id="CCSDS_OMM_VERS" version="2.0">
<header><CREATION_DATE/><ORIGINATOR/></header><body><segment><metadata><OBJECT_NAME>ORBCOMM FM21 [-]</OBJECT_NAME><OBJECT_ID>1998-053A</OBJECT_ID><CENTER_NAME>EARTH</CENTER_NAME><REF_FRAME>TEME</REF_FRAME><TIME_SYSTEM>UTC</TIME_SYSTEM><MEAN_ELEMENT_THEORY>SGP4</MEAN_ELEMENT_THEORY></metadata><data><meanElements><EPOCH>2023-11-11T12:14:50.045280</EPOCH><MEAN_MOTION>14.34649272</MEAN_MOTION><ECCENTRICITY>.0000689</ECCENTRICITY><INCLINATION>45.0067</INCLINATION><RA_OF_ASC_NODE>147.2654</RA_OF_ASC_NODE><ARG_OF_PERICENTER>152.3212</ARG_OF_PERICENTER><MEAN_ANOMALY>207.7671</MEAN_ANOMALY></meanElements><tleParameters><EPHEMERIS_TYPE>0</EPHEMERIS_TYPE><CLASSIFICATION_TYPE>U</CLASSIFICATION_TYPE><NORAD_CAT_ID>25475</NORAD_CAT_ID><ELEMENT_SET_NO>999</ELEMENT_SET_NO><REV_AT_EPOCH>31368</REV_AT_EPOCH><BSTAR>.59638E-3</BSTAR><MEAN_MOTION_DOT>.1561E-4</MEAN_MOTION_DOT><MEAN_MOTION_DDOT>0</MEAN_MOTION_DDOT></tleParameters></data></segment></body></omm>
<omm id="CCSDS_OMM_VERS" version="2.0">
<header><CREATION_DATE/><ORIGINATOR/></header><body><segment><metadata><OBJECT_NAME>ORBCOMM FM22 [-]</OBJECT_NAME><OBJECT_ID>1998-053B</OBJECT_ID><CENTER_NAME>EARTH</CENTER_NAME><REF_FRAME>TEME</REF_FRAME><TIME_SYSTEM>UTC</TIME_SYSTEM><MEAN_ELEMENT_THEORY>SGP4</MEAN_ELEMENT_THEORY></metadata><data><meanElements><EPOCH>2023-11-10T20:22:08.594112</EPOCH><MEAN_MOTION>14.35033087</MEAN_MOTION><ECCENTRICITY>.0002439</ECCENTRICITY><INCLINATION>45.0065</INCLINATION><RA_OF_ASC_NODE>148.3064</RA_OF_ASC_NODE><ARG_OF_PERICENTER>161.8865</ARG_OF_PERICENTER><MEAN_ANOMALY>198.2070</MEAN_ANOMALY></meanElements><tleParameters><EPHEMERIS_TYPE>0</EPHEMERIS_TYPE><CLASSIFICATION_TYPE>U</CLASSIFICATION_TYPE><NORAD_CAT_ID>25476</NORAD_CAT_ID><ELEMENT_SET_NO>999</ELEMENT_SET_NO><REV_AT_EPOCH>31324</REV_AT_EPOCH><BSTAR>.67374E-3</BSTAR><MEAN_MOTION_DOT>.1797E-4</MEAN_MOTION_DOT><MEAN_MOTION_DDOT>0</MEAN_MOTION_DDOT></tleParameters></data></segment></body></omm>
<omm id="CCSDS_OMM_VERS" version="2.0">
<header><CREATION_DATE/><ORIGINATOR/></header><body><segment><metadata><OBJECT_NAME>ORBCOMM FM23 [-]</OBJECT_NAME><OBJECT_ID>1998-053C</OBJECT_ID><CENTER_NAME>EARTH</CENTER_NAME><REF_FRAME>TEME</REF_FRAME><TIME_SYSTEM>UTC</TIME_SYSTEM><MEAN_ELEMENT_THEORY>SGP4</MEAN_ELEMENT_THEORY></metadata><data><meanElements><EPOCH>2023-11-10T20:15:25.810272</EPOCH><MEAN_MOTION>14.34629479</MEAN_MOTION><ECCENTRICITY>.0001681</ECCENTRICITY><INCLINATION>45.0070</INCLINATION><RA_OF_ASC_NODE>152.8530</RA_OF_ASC_NODE><ARG_OF_PERICENTER>156.0664</ARG_OF_PERICENTER><MEAN_ANOMALY>204.0262</MEAN_ANOMALY></meanElements><tleParameters><EPHEMERIS_TYPE>0</EPHEMERIS_TYPE><CLASSIFICATION_TYPE>U</CLASSIFICATION_TYPE><NORAD_CAT_ID>25477</NORAD_CAT_ID><ELEMENT_SET_NO>999</ELEMENT_SET_NO><REV_AT_EPOCH>31340</REV_AT_EPOCH><BSTAR>.58326E-3</BSTAR><MEAN_MOTION_DOT>.1523E-4</MEAN_MOTION_DOT><MEAN_MOTION_DDOT>0</MEAN_MOTION_DDOT></tleParameters></data></segment></body></omm>

</ndm>
