ORBCOMM FM20 [+]        
1 25416U 98046D   23314.58996826  .00001629  00000+0  62105-3 0  9995
2 25416  44.9944  63.5785 0001798 204.4560 155.6202 14.34588741320241
ORBCOMM FM16 [-]        
1 25417U 98046E   23315.14406713  .00001924  00000+0  71365-3 0  9996
2 25417  44.9953  57.9244 0005391 234.8004 125.2339 14.35335139320462
ORBCOMM FM15 [-]        
1 25418U 98046F   23315.41616768  .00002256  00000+0  83227-3 0  9999
2 25418  44.9977  60.2956 0004837 236.4951 123.5434 14.35088112320462
ORBCOMM FM14 [-]        
1 25419U 98046G   23314.43502681  .00002599  00000+0  94923-3 0  9994
2 25419  44.9963  64.2460 0003811 220.7519 247.4098 14.35204737320105
ORBCOMM FM13 [+]        
1 25420U 98046H   23315.14471952  .00001643  00000+0  62493-3 0  9997
2 25420  44.9979  64.8616 0005955 223.5112 136.5266 14.34639171320416
ORBCOMM FM21 [-]        
1 25475U 98053A   23315.51030145  .00001561  00000+0  59638-3 0  9997
2 25475  45.0067 147.2654 0000689 152.3212 207.7671 14.34649272313688
ORBCOMM FM22 [-]        
1 25476U 98053B   23314.84871058  .00001797  00000+0  67374-3 0  9996
2 25476  45.0065 148.3064 0002439 161.8865 198.2070 14.35033087313249
ORBCOMM FM23 [-]        
1 25477U 98053C   23314.84404873  .00001523  00000+0  58326-3 0  9998
2 25477  45.0070 152.8530 0001681 156.0664 204.0262 14.34629479313407
